{
    "links": {
        "self": "http://www.neowsapp.com/rest/v1/neo/3803761?api_key=iIulBulltgU6a56xZRHN4H3l9WmuAYTsLGpBGhQ2"
    },
    "id": "3803761",
    "neo_reference_id": "3803761",
    "name": "(2018 GB5)",
    "designation": "2018 GB5",
    "nasa_jpl_url": "http://ssd.jpl.nasa.gov/sbdb.cgi?sstr=3803761",
    "absolute_magnitude_h": 25.0,
    "estimated_diameter": {
        "kilometers": {
            "estimated_diameter_min": 0.02658,
            "estimated_diameter_max": 0.0594346868
        },
        "meters": {
            "estimated_diameter_min": 26.58,
            "estimated_diameter_max": 59.4346868419
        },
        "miles": {
            "estimated_diameter_min": 0.0165160412,
            "estimated_diameter_max": 0.0369309908
        },
        "feet": {
            "estimated_diameter_min": 87.2047272,
            "estimated_diameter_max": 194.9956979785
        }
    },
    "is_potentially_hazardous_asteroid": false,
    "close_approach_data": [
        {
            "close_approach_date": "2014-10-31",
            "close_approach_date_full": "2014-Oct-31 03:50",
            "epoch_date_close_approach": 1414727400000,
            "relative_velocity": {
                "kilometers_per_second": "18.6712387718",
                "kilometers_per_hour": "67216.4595785682",
                "miles_per_hour": "41765.6940086942"
            },
            "miss_distance": {
                "astronomical": "0.3473483435",
                "lunar": "135.1185056215",
                "kilometers": "51962572.335628345",
                "miles": "32288045.232807361"
            },
            "orbiting_body": "Earth"
        },
        {
            "close_approach_date": "2017-10-31",
            "close_approach_date_full": "2017-Oct-31 02:19",
            "epoch_date_close_approach": 1509416340000,
            "relative_velocity": {
                "kilometers_per_second": "18.7305326742",
                "kilometers_per_hour": "67429.9176271146",
                "miles_per_hour": "41898.3285389146"
            },
            "miss_distance": {
                "astronomical": "0.3479072988",
                "lunar": "135.3359392332",
                "kilometers": "52046190.857933556",
                "miles": "32340003.3732368328"
            },
            "orbiting_body": "Earth"
        },
        {
            "close_approach_date": "2018-04-14",
            "close_approach_date_full": "2018-Apr-14 09:06",
            "epoch_date_close_approach": 1523696760000,
            "relative_velocity": {
                "kilometers_per_second": "19.636414129",
                "kilometers_per_hour": "70691.0908644637",
                "miles_per_hour": "43924.6947651997"
            },
            "miss_distance": {
                "astronomical": "0.0758388524",
                "lunar": "29.5013135836",
                "kilometers": "11345330.782284388",
                "miles": "7049661.6509570344"
            },
            "orbiting_body": "Earth"
        },
        {
            "close_approach_date": "2020-10-31",
            "close_approach_date_full": "2020-Oct-31 00:35",
            "epoch_date_close_approach": 1604104500000,
            "relative_velocity": {
                "kilometers_per_second": "18.7973098838",
                "kilometers_per_hour": "67670.315581581",
                "miles_per_hour": "42047.7024790107"
            },
            "miss_distance": {
                "astronomical": "0.3484127714",
                "lunar": "135.5325680746",
                "kilometers": "52121808.482236918",
                "miles": "32386989.9861807484"
            },
            "orbiting_body": "Earth"
        }
    ],
    "orbital_data": {
        "orbit_id": "3",
        "orbit_determination_date": "2018-05-06 06:38:44",
        "first_observation_date": "2018-04-14",
        "last_observation_date": "2018-04-19",
        "data_arc_in_days": 5,
        "observations_used": 45,
        "orbit_uncertainty": "8",
        "minimum_orbit_intersection": ".075104",
        "jupiter_tisserand_invariant": "4.750",
        "epoch_osculation": "2458224.5",
        "eccentricity": ".2658957725191042",
        "semi_major_axis": "1.309862878209212",
        "inclination": "36.47037487447152",
        "ascending_node_longitude": "26.12509175600856",
        "orbital_period": "547.5668884745479",
        "perihelion_distance": ".961575876313676",
        "perihelion_argument": "117.8174184440591",
        "aphelion_distance": "1.658149880104747",
        "perihelion_time": "2458167.447792245075",
        "mean_anomaly": "37.50919791551217",
        "mean_motion": ".6574539249495427",
        "equinox": "J2000",
        "orbit_class": {
            "orbit_class_type": "APO",
            "orbit_class_description": "Near-Earth asteroid orbits which cross the Earth’s orbit similar to that of 1862 Apollo",
            "orbit_class_range": "a (semi-major axis) > 1.0 AU; q (perihelion) < 1.017 AU"
        }
    },
    "is_sentry_object": false
}